O3B MPOWER F1           
1 54755U 22174A   23336.51794896 -.00000023  00000+0  00000+0 0  9992
2 54755   0.0548  17.6446 0005764 247.9517 216.2516  5.00118454 18954
